LANDSAT 9               
1 49260U 21088A   24293.53180804  .00002180  00000+0  49381-3 0  9997
2 49260  98.2196   1.5661 0001263  76.8934 283.2406 14.57101297162793
